TOMORROW-R2             
1 56962U 23084AG  26068.88846178  .00107013  00000+0  81619-3 0  9996
2 56962  97.5895 222.1734 0005114 248.1295 111.9424 15.71879583153326
STARLINK-11502 [DTC]    
1 62474U 24254N   26068.44659358  .00246881  00000+0  18601-2 0  9992
2 62474  42.9986 224.3830 0001555 220.6210 139.4542 15.70977580 69365
