[{"OBJECT_NAME":"TOMORROW-R2","OBJECT_ID":"2023-084AG","EPOCH":"2026-03-09T21:19:23.098656","MEAN_MOTION":15.71879583,"ECCENTRICITY":0.00051142,"INCLINATION":97.5895,"RA_OF_ASC_NODE":222.1734,"ARG_OF_PERICENTER":248.1295,"MEAN_ANOMALY":111.9424,"EPHEMERIS_TYPE":0,"CLASSIFICATION_TYPE":"U","NORAD_CAT_ID":56962,"ELEMENT_SET_NO":999,"REV_AT_EPOCH":15332,"BSTAR":0.00081619373,"MEAN_MOTION_DOT":0.00107013,"MEAN_MOTION_DDOT":0},{"OBJECT_NAME":"STARLINK-11502 [DTC]","OBJECT_ID":"2024-254N","EPOCH":"2026-03-09T10:43:05.685312","MEAN_MOTION":15.7097758,"ECCENTRICITY":0.00015555,"INCLINATION":42.9986,"RA_OF_ASC_NODE":224.383,"ARG_OF_PERICENTER":220.621,"MEAN_ANOMALY":139.4542,"EPHEMERIS_TYPE":0,"CLASSIFICATION_TYPE":"U","NORAD_CAT_ID":62474,"ELEMENT_SET_NO":999,"REV_AT_EPOCH":6936,"BSTAR":0.0018601376,"MEAN_MOTION_DOT":0.00246881,"MEAN_MOTION_DDOT":0}]
